CCSDS_OMM_VERS = 2.0
CREATION_DATE  = 
ORIGINATOR     = 

OBJECT_NAME    = UNKNOWN
OBJECT_ID      = 
CENTER_NAME    = EARTH
REF_FRAME      = TEME
TIME_SYSTEM    = UTC
MEAN_ELEMENT_THEORY = SGP/SGP4

EPOCH          = 2025-12-20T07:43:19.372800
MEAN_MOTION    = 13.82883970
ECCENTRICITY   = .0566165
INCLINATION    = 65.7712
RA_OF_ASC_NODE = 10.2628
ARG_OF_PERICENTER = 304.0648
MEAN_ANOMALY   = 50.7891

EPHEMERIS_TYPE = 0
CLASSIFICATION_TYPE = U
NORAD_CAT_ID   = 81052
ELEMENT_SET_NO = 999
REV_AT_EPOCH   = 60136
BSTAR          = .17827E-2
MEAN_MOTION_DOT = .6759E-4
MEAN_MOTION_DDOT = 0

CCSDS_OMM_VERS = 2.0
CREATION_DATE  = 
ORIGINATOR     = 

OBJECT_NAME    = UNKNOWN
OBJECT_ID      = 
CENTER_NAME    = EARTH
REF_FRAME      = TEME
TIME_SYSTEM    = UTC
MEAN_ELEMENT_THEORY = SGP/SGP4

EPOCH          = 2025-12-22T11:20:19.724064
MEAN_MOTION    = 13.60571598
ECCENTRICITY   = .0067474
INCLINATION    = 100.3835
RA_OF_ASC_NODE = 258.1709
ARG_OF_PERICENTER = 18.9213
MEAN_ANOMALY   = 341.4410

EPHEMERIS_TYPE = 0
CLASSIFICATION_TYPE = U
NORAD_CAT_ID   = 81069
ELEMENT_SET_NO = 999
REV_AT_EPOCH   = 51725
BSTAR          = .49794E-2
MEAN_MOTION_DOT = .3758E-4
MEAN_MOTION_DDOT = 0

CCSDS_OMM_VERS = 2.0
CREATION_DATE  = 
ORIGINATOR     = 

OBJECT_NAME    = UNKNOWN
OBJECT_ID      = 
CENTER_NAME    = EARTH
REF_FRAME      = TEME
TIME_SYSTEM    = UTC
MEAN_ELEMENT_THEORY = SGP/SGP4

EPOCH          = 2025-12-22T02:51:12.830400
MEAN_MOTION    = 7.55514864
ECCENTRICITY   = .3857423
INCLINATION    = 62.8909
RA_OF_ASC_NODE = 10.4822
ARG_OF_PERICENTER = 357.5875
MEAN_ANOMALY   = 1.0208

EPHEMERIS_TYPE = 0
CLASSIFICATION_TYPE = U
NORAD_CAT_ID   = 81111
ELEMENT_SET_NO = 999
REV_AT_EPOCH   = 27265
BSTAR          = .33199E-2
MEAN_MOTION_DOT = .15037E-3
MEAN_MOTION_DDOT = 0

CCSDS_OMM_VERS = 2.0
CREATION_DATE  = 
ORIGINATOR     = 

OBJECT_NAME    = UNKNOWN
OBJECT_ID      = 
CENTER_NAME    = EARTH
REF_FRAME      = TEME
TIME_SYSTEM    = UTC
MEAN_ELEMENT_THEORY = SGP/SGP4

EPOCH          = 2025-12-21T10:43:18.895872
MEAN_MOTION    = 13.81608786
ECCENTRICITY   = .0002368
INCLINATION    = 99.9720
RA_OF_ASC_NODE = 77.5513
ARG_OF_PERICENTER = 68.2161
MEAN_ANOMALY   = 291.9242

EPHEMERIS_TYPE = 0
CLASSIFICATION_TYPE = U
NORAD_CAT_ID   = 81123
ELEMENT_SET_NO = 999
REV_AT_EPOCH   = 60748
BSTAR          = .95956E-3
MEAN_MOTION_DOT = .975E-5
MEAN_MOTION_DDOT = 0

CCSDS_OMM_VERS = 2.0
CREATION_DATE  = 
ORIGINATOR     = 

OBJECT_NAME    = UNKNOWN
OBJECT_ID      = 
CENTER_NAME    = EARTH
REF_FRAME      = TEME
TIME_SYSTEM    = UTC
MEAN_ELEMENT_THEORY = SGP/SGP4

EPOCH          = 2025-12-21T10:53:17.246112
MEAN_MOTION    = 12.92980598
ECCENTRICITY   = .0025915
INCLINATION    = 90.2470
RA_OF_ASC_NODE = 4.2237
ARG_OF_PERICENTER = 10.0623
MEAN_ANOMALY   = 350.1008

EPHEMERIS_TYPE = 0
CLASSIFICATION_TYPE = U
NORAD_CAT_ID   = 81134
ELEMENT_SET_NO = 999
REV_AT_EPOCH   = 46373
BSTAR          = .32237E-3
MEAN_MOTION_DOT = .95E-6
MEAN_MOTION_DDOT = 0

CCSDS_OMM_VERS = 2.0
CREATION_DATE  = 
ORIGINATOR     = 

OBJECT_NAME    = UNKNOWN
OBJECT_ID      = 
CENTER_NAME    = EARTH
REF_FRAME      = TEME
TIME_SYSTEM    = UTC
MEAN_ELEMENT_THEORY = SGP/SGP4

EPOCH          = 2025-12-17T20:31:07.406976
MEAN_MOTION    = 13.75638027
ECCENTRICITY   = .006355
INCLINATION    = 100.4169
RA_OF_ASC_NODE = 194.3509
ARG_OF_PERICENTER = 270.9508
MEAN_ANOMALY   = 88.4357

EPHEMERIS_TYPE = 0
CLASSIFICATION_TYPE = U
NORAD_CAT_ID   = 81161
ELEMENT_SET_NO = 999
REV_AT_EPOCH   = 55683
BSTAR          = .11661E-2
MEAN_MOTION_DOT = .1089E-4
MEAN_MOTION_DDOT = 0

CCSDS_OMM_VERS = 2.0
CREATION_DATE  = 
ORIGINATOR     = 

OBJECT_NAME    = UNKNOWN
OBJECT_ID      = 
CENTER_NAME    = EARTH
REF_FRAME      = TEME
TIME_SYSTEM    = UTC
MEAN_ELEMENT_THEORY = SGP/SGP4

EPOCH          = 2025-12-20T07:23:44.995488
MEAN_MOTION    = 13.81790680
ECCENTRICITY   = .0021047
INCLINATION    = 82.9260
RA_OF_ASC_NODE = 0.4565
ARG_OF_PERICENTER = 190.8590
MEAN_ANOMALY   = 169.2118

EPHEMERIS_TYPE = 0
CLASSIFICATION_TYPE = U
NORAD_CAT_ID   = 81219
ELEMENT_SET_NO = 999
REV_AT_EPOCH   = 60856
BSTAR          = .28322E-3
MEAN_MOTION_DOT = .319E-5
MEAN_MOTION_DDOT = 0

CCSDS_OMM_VERS = 2.0
CREATION_DATE  = 
ORIGINATOR     = 

OBJECT_NAME    = UNKNOWN
OBJECT_ID      = 
CENTER_NAME    = EARTH
REF_FRAME      = TEME
TIME_SYSTEM    = UTC
MEAN_ELEMENT_THEORY = SGP/SGP4

EPOCH          = 2025-12-21T00:09:21.320064
MEAN_MOTION    = 14.40883073
ECCENTRICITY   = .0063176
INCLINATION    = 70.5209
RA_OF_ASC_NODE = 258.1816
ARG_OF_PERICENTER = 348.2275
MEAN_ANOMALY   = 11.7376

EPHEMERIS_TYPE = 0
CLASSIFICATION_TYPE = U
NORAD_CAT_ID   = 81228
ELEMENT_SET_NO = 999
REV_AT_EPOCH   = 62728
BSTAR          = .12988E-2
MEAN_MOTION_DOT = .4214E-4
MEAN_MOTION_DDOT = 0

CCSDS_OMM_VERS = 2.0
CREATION_DATE  = 
ORIGINATOR     = 

OBJECT_NAME    = UNKNOWN
OBJECT_ID      = 
CENTER_NAME    = EARTH
REF_FRAME      = TEME
TIME_SYSTEM    = UTC
MEAN_ELEMENT_THEORY = SGP/SGP4

EPOCH          = 2025-12-10T23:01:17.305248
MEAN_MOTION    = 14.01487201
ECCENTRICITY   = .0071877
INCLINATION    = 100.3883
RA_OF_ASC_NODE = 46.7990
ARG_OF_PERICENTER = 78.2189
MEAN_ANOMALY   = 282.7023

EPHEMERIS_TYPE = 0
CLASSIFICATION_TYPE = U
NORAD_CAT_ID   = 81254
ELEMENT_SET_NO = 999
REV_AT_EPOCH   = 61264
BSTAR          = .32509E-2
MEAN_MOTION_DOT = .4972E-4
MEAN_MOTION_DDOT = 0

CCSDS_OMM_VERS = 2.0
CREATION_DATE  = 
ORIGINATOR     = 

OBJECT_NAME    = UNKNOWN
OBJECT_ID      = 
CENTER_NAME    = EARTH
REF_FRAME      = TEME
TIME_SYSTEM    = UTC
MEAN_ELEMENT_THEORY = SGP/SGP4

EPOCH          = 2025-12-20T22:47:34.384128
MEAN_MOTION    = 14.19956190
ECCENTRICITY   = .020701
INCLINATION    = 98.1288
RA_OF_ASC_NODE = 53.7172
ARG_OF_PERICENTER = 1.3586
MEAN_ANOMALY   = 358.8112

EPHEMERIS_TYPE = 0
CLASSIFICATION_TYPE = U
NORAD_CAT_ID   = 81279
ELEMENT_SET_NO = 999
REV_AT_EPOCH   = 46376
BSTAR          = .29839E-3
MEAN_MOTION_DOT = .744E-5
MEAN_MOTION_DDOT = 0

CCSDS_OMM_VERS = 2.0
CREATION_DATE  = 
ORIGINATOR     = 

OBJECT_NAME    = UNKNOWN
OBJECT_ID      = 
CENTER_NAME    = EARTH
REF_FRAME      = TEME
TIME_SYSTEM    = UTC
MEAN_ELEMENT_THEORY = SGP/SGP4

EPOCH          = 2025-12-17T14:20:59.432640
MEAN_MOTION    = 13.76710403
ECCENTRICITY   = .0094242
INCLINATION    = 66.7593
RA_OF_ASC_NODE = 284.2668
ARG_OF_PERICENTER = 229.6081
MEAN_ANOMALY   = 309.6091

EPHEMERIS_TYPE = 0
CLASSIFICATION_TYPE = U
NORAD_CAT_ID   = 81301
ELEMENT_SET_NO = 999
REV_AT_EPOCH   = 60702
BSTAR          = .26613E-3
MEAN_MOTION_DOT = .196E-5
MEAN_MOTION_DDOT = 0

CCSDS_OMM_VERS = 2.0
CREATION_DATE  = 
ORIGINATOR     = 

OBJECT_NAME    = UNKNOWN
OBJECT_ID      = 
CENTER_NAME    = EARTH
REF_FRAME      = TEME
TIME_SYSTEM    = UTC
MEAN_ELEMENT_THEORY = SGP/SGP4

EPOCH          = 2025-12-15T15:43:12.706752
MEAN_MOTION    = 14.56543534
ECCENTRICITY   = .0132255
INCLINATION    = 98.7325
RA_OF_ASC_NODE = 47.0680
ARG_OF_PERICENTER = 115.5719
MEAN_ANOMALY   = 35.0209

EPHEMERIS_TYPE = 0
CLASSIFICATION_TYPE = U
NORAD_CAT_ID   = 81311
ELEMENT_SET_NO = 999
REV_AT_EPOCH   = 64001
BSTAR          = .14091E-3
MEAN_MOTION_DOT = .65E-5
MEAN_MOTION_DDOT = 0

