UNKNOWN                 
1 81052U          25354.32175200  .00006759  00000+0  17827-2 0  9998
2 81052  65.7712  10.2628 0566165 304.0648  50.7891 13.82883970601364
UNKNOWN                 
1 81069U          25356.47245051  .00003758  00000+0  49794-2 0  9990
2 81069 100.3835 258.1709 0067474  18.9213 341.4410 13.60571598517252
UNKNOWN                 
1 81111U          25356.11889850  .00015037  00000+0  33199-2 0  9995
2 81111  62.8909  10.4822 3857423 357.5875   1.0208  7.55514864272655
UNKNOWN                 
1 81123U          25355.44674648  .00000975  00000+0  95956-3 0  9995
2 81123  99.9720  77.5513 0002368  68.2161 291.9242 13.81608786607486
UNKNOWN                 
1 81134U          25355.45367183  .00000095  00000+0  32237-3 0  9997
2 81134  90.2470   4.2237 0025915  10.0623 350.1008 12.92980598463736
UNKNOWN                 
1 81161U          25351.85494684  .00001089  00000+0  11661-2 0  9995
2 81161 100.4169 194.3509 0063550 270.9508  88.4357 13.75638027556835
UNKNOWN                 
1 81219U          25354.30815967  .00000319  00000+0  28322-3 0  9991
2 81219  82.9260   0.4565 0021047 190.8590 169.2118 13.81790680608562
UNKNOWN                 
1 81228U          25355.00649676  .00004214  00000+0  12988-2 0  9999
2 81228  70.5209 258.1816 0063176 348.2275  11.7376 14.40883073627289
UNKNOWN                 
1 81254U          25344.95922807  .00004972  00000+0  32509-2 0  9992
2 81254 100.3883  46.7990 0071877  78.2189 282.7023 14.01487201612646
UNKNOWN                 
1 81279U          25354.94970352  .00000744  00000+0  29839-3 0  9993
2 81279  98.1288  53.7172 0207010   1.3586 358.8112 14.19956190463762
UNKNOWN                 
1 81301U          25351.59791010  .00000196  00000+0  26613-3 0  9997
2 81301  66.7593 284.2668 0094242 229.6081 309.6091 13.76710403607021
UNKNOWN                 
1 81311U          25349.65500818  .00000650  00000+0  14091-3 0  9998
2 81311  98.7325  47.0680 0132255 115.5719  35.0209 14.56543534640012
